[{"OBJECT_NAME":"STARLINK-3858","OBJECT_ID":"2022-051W","EPOCH":"2026-03-09T10:30:19.250784","MEAN_MOTION":15.088451,"ECCENTRICITY":0.00014257,"INCLINATION":53.2167,"RA_OF_ASC_NODE":129.9136,"ARG_OF_PERICENTER":85.6169,"MEAN_ANOMALY":274.4986,"EPHEMERIS_TYPE":0,"CLASSIFICATION_TYPE":"U","NORAD_CAT_ID":52553,"ELEMENT_SET_NO":999,"REV_AT_EPOCH":21141,"BSTAR":1.8734813e-5,"MEAN_MOTION_DOT":1.0e-7,"MEAN_MOTION_DDOT":0},{"OBJECT_NAME":"POSAT-2","OBJECT_ID":"2025-009DR","EPOCH":"2026-03-09T23:15:20.314368","MEAN_MOTION":15.10404492,"ECCENTRICITY":0.00077103,"INCLINATION":97.4906,"RA_OF_ASC_NODE":146.0095,"ARG_OF_PERICENTER":126.4226,"MEAN_ANOMALY":233.7715,"EPHEMERIS_TYPE":0,"CLASSIFICATION_TYPE":"U","NORAD_CAT_ID":63488,"ELEMENT_SET_NO":999,"REV_AT_EPOCH":5165,"BSTAR":0.0010942248,"MEAN_MOTION_DOT":0.00017957,"MEAN_MOTION_DDOT":0}]
